NORAD_CAT_ID,OBJECT_NAME,OBJECT_TYPE,EPOCH,MEAN_MOTION,ECCENTRICITY,INCLINATION,RA_OF_ASC_NODE,ARG_OF_PERICENTER,MEAN_ANOMALY,BSTAR,MEAN_MOTION_DOT,MEAN_MOTION_DDOT,TLE_LINE0,TLE_LINE1,TLE_LINE2,SEMIMAJOR_AXIS,PERIOD,APOGEE,PERIGEE,DECAYED
52120.0,STARLINK-3534,PAYLOAD,2023-03-27 14:32:39,15.08875808,9.97e-05,53.2156,238.827,129.5075,230.6005,0.0014945,0.000236,0.0,0 STARLINK-3534,1 52120U 22029AJ  23086.60600806  .00023600  00000-0  14945-2 0  9996,2 52120  53.2156 238.8270 0000997 129.5075 230.6005 15.08875808 58041,6917.771,95.435,540.326,538.946,0.0
52120.0,STARLINK-3534,PAYLOAD,2023-03-27 17:43:25,15.08883518,9.63e-05,53.2154,238.2323,126.7694,233.3386,0.0016144,0.00025529,0.0,0 STARLINK-3534,1 52120U 22029AJ  23086.73848423  .00025529  00000-0  16144-2 0  9994,2 52120  53.2154 238.2323 0000963 126.7694 233.3386 15.08883518 58062,6917.747,95.435,540.279,538.946,0.0
52120.0,STARLINK-3534,PAYLOAD,2023-03-28 03:15:43,15.08867807,0.0001084,53.2154,236.448,86.2441,273.8675,0.001054,0.00016539,0.0,0 STARLINK-3534,1 52120U 22029AJ  23087.13592351  .00016539  00000-0  10540-2 0  9990,2 52120  53.2154 236.4480 0001084  86.2441 273.8675 15.08867807 58121,6917.795,95.436,540.41,538.911,0.0
52120.0,STARLINK-3534,PAYLOAD,2023-03-28 09:37:16,15.08858798,0.0001483,53.2137,235.2615,80.0096,280.1064,0.00064013,9.92e-05,0.0,0 STARLINK-3534,1 52120U 22029AJ  23087.40088299  .00009920  00000-0  64013-3 0  9992,2 52120  53.2137 235.2615 0001483  80.0096 280.1064 15.08858798 58166,6917.823,95.436,540.714,538.662,0.0
52120.0,STARLINK-3534,PAYLOAD,2023-03-28 14:23:25,15.08851027,0.0001496,53.215,234.3665,90.8217,269.2946,6.7411e-05,7.85e-06,0.0,0 STARLINK-3534,1 52120U 22029AJ  23087.59960286  .00000785  00000-0  67411-4 0  9993,2 52120  53.2150 234.3665 0001496  90.8217 269.2946 15.08851027 58192,6917.847,95.437,540.747,538.677,0.0
52120.0,STARLINK-3534,PAYLOAD,2023-03-28 15:58:48,15.08850259,0.0001163,53.2149,234.0695,91.2501,268.8624,-1.1845e-05,-4.76e-06,0.0,0 STARLINK-3534,1 52120U 22029AJ  23087.66584245 -.00000476  00000-0 -11845-4 0  9997,2 52120  53.2149 234.0695 0001163  91.2501 268.8624 15.08850259 58208,6917.849,95.437,540.519,538.909,0.0
52120.0,STARLINK-3534,PAYLOAD,2023-03-29 12:38:49,15.08843531,0.0001105,53.2157,230.2034,109.95,250.1611,-5.2367e-05,-1.121e-05,0.0,0 STARLINK-3534,1 52120U 22029AJ  23088.52696168 -.00001121  00000-0 -52367-4 0  9993,2 52120  53.2157 230.2034 0001105 109.9500 250.1611 15.08843531 58333,6917.87,95.437,540.499,538.97,0.0
52120.0,STARLINK-3534,PAYLOAD,2023-03-29 15:49:35,15.08848826,8.02e-05,53.2163,229.6092,97.4892,262.6191,-7.7137e-05,-1.515e-05,0.0,0 STARLINK-3534,1 52120U 22029AJ  23088.65944021 -.00001515  00000-0 -77137-4 0  9990,2 52120  53.2163 229.6092 0000802  97.4892 262.6191 15.08848826 58359,6917.853,95.437,540.273,539.164,0.0
52120.0,STARLINK-3534,PAYLOAD,2023-03-30 14:04:59,15.08845045,0.0001125,53.217,225.4478,87.9562,272.1559,0.00016204,2.292e-05,0.0,0 STARLINK-3534,1 52120U 22029AJ  23089.58680290  .00002292  00000-0  16204-3 0  9996,2 52120  53.2170 225.4478 0001125  87.9562 272.1559 15.08845045 58495,6917.865,95.437,540.508,538.952,0.0
52120.0,STARLINK-3534,PAYLOAD,2023-03-31 09:09:37,15.08840073,9.59e-05,53.2182,221.8787,113.0684,247.0409,0.00023256,3.415e-05,0.0,0 STARLINK-3534,1 52120U 22029AJ  23090.38168354  .00003415  00000-0  23256-3 0  9991,2 52120  53.2182 221.8787 0000959 113.0684 247.0409 15.08840073 58616,6917.88,95.438,540.409,539.082,0.0
52120.0,STARLINK-3534,PAYLOAD,2023-04-01 12:11:12,15.08821855,0.0001287,53.2188,216.8227,115.7942,244.3183,-0.00011093,-2.052e-05,0.0,0 STARLINK-3534,1 52120U 22029AJ  23091.50778230 -.00002052  00000-0 -11093-3 0  9990,2 52120  53.2188 216.8227 0001287 115.7942 244.3183 15.08821855 58780,6917.936,95.439,540.691,538.911,0.0
52120.0,STARLINK-3534,PAYLOAD,2023-04-01 13:46:35,15.08824925,0.0001289,53.218,216.525,108.0269,252.0864,-0.00010428,-1.946e-05,0.0,0 STARLINK-3534,1 52120U 22029AJ  23091.57402084 -.00001946  00000-0 -10428-3 0  9990,2 52120  53.2180 216.5250 0001289 108.0269 252.0864 15.08824925 58798,6917.926,95.439,540.683,538.9,0.0
52120.0,STARLINK-3534,PAYLOAD,2023-04-02 00:54:16,15.08833681,0.0001069,53.2176,214.4432,114.0124,246.0981,4.472e-05,4.24e-06,0.0,0 STARLINK-3534,1 52120U 22029AJ  23092.03769397  .00000424  00000-0  44720-4 0  9996,2 52120  53.2176 214.4432 0001069 114.0124 246.0981 15.08833681 58865,6917.9,95.438,540.504,539.025,0.0
52120.0,STARLINK-3534,PAYLOAD,2023-04-02 12:01:57,15.08844564,6.81e-05,53.2165,212.3608,105.7201,254.3867,0.0001334,1.836e-05,0.0,0 STARLINK-3534,1 52120U 22029AJ  23092.50136514  .00001836  00000-0  13340-3 0  9998,2 52120  53.2165 212.3608 0000681 105.7201 254.3867 15.08844564 58932,6917.866,95.437,540.203,539.26,0.0
52120.0,STARLINK-3534,PAYLOAD,2023-04-02 13:37:21,15.08844235,8.3e-05,53.2153,212.0634,101.4335,258.6751,0.0002561,3.791e-05,0.0,0 STARLINK-3534,1 52120U 22029AJ  23092.56760594  .00003791  00000-0  25610-3 0  9990,2 52120  53.2153 212.0634 0000830 101.4335 258.6751 15.08844235 58947,6917.867,95.437,540.307,539.158,0.0
52120.0,STARLINK-3534,PAYLOAD,2023-04-02 18:23:29,15.08857528,0.0001147,53.2159,211.1709,110.1348,249.9768,0.00032587,4.905e-05,0.0,0 STARLINK-3534,1 52120U 22029AJ  23092.76631801  .00004905  00000-0  32587-3 0  9999,2 52120  53.2159 211.1709 0001147 110.1348 249.9768 15.08857528 58972,6917.827,95.436,540.485,538.898,0.0
52120.0,STARLINK-3534,PAYLOAD,2023-04-03 00:45:03,15.08827292,0.0001011,53.2164,209.9835,111.9759,248.1341,-7.7875e-05,-1.526e-05,0.0,0 STARLINK-3534,1 52120U 22029AJ  23093.03129332 -.00001526  00000-0 -77875-4 0  9999,2 52120  53.2164 209.9835 0001011 111.9759 248.1341 15.08827292 59017,6917.919,95.438,540.484,539.085,0.0
52120.0,STARLINK-3534,PAYLOAD,2023-04-03 11:52:46,15.08825541,9.48e-05,53.2165,207.9014,102.1186,257.9912,9.1934e-05,1.175e-05,0.0,0 STARLINK-3534,1 52120U 22029AJ  23093.49497879  .00001175  00000-0  91934-4 0  9993,2 52120  53.2165 207.9014 0000948 102.1186 257.9912 15.08825541 59083,6917.925,95.438,540.445,539.134,0.0
52120.0,STARLINK-3534,PAYLOAD,2023-04-04 00:35:50,15.08839853,0.0001344,53.2161,205.5217,95.944,264.1705,9.526e-05,1.228e-05,0.0,0 STARLINK-3534,1 52120U 22029AJ  23094.02489393  .00001228  00000-0  95260-4 0  9990,2 52120  53.2161 205.5217 0001344  95.9440 264.1705 15.08839853 59161,6917.881,95.438,540.676,538.816,0.0
52120.0,STARLINK-3534,PAYLOAD,2023-04-04 11:43:32,15.0884899,0.0001061,53.2165,203.4414,98.3574,261.7539,0.0001938,2.799e-05,0.0,0 STARLINK-3534,1 52120U 22029AJ  23094.48856847  .00002799  00000-0  19380-3 0  9994,2 52120  53.2165 203.4414 0001061  98.3574 261.7539 15.08848990 59230,6917.853,95.437,540.452,538.984,0.0
52120.0,STARLINK-3534,PAYLOAD,2023-04-05 13:09:42,15.08842901,0.0001069,53.2155,198.6811,98.9335,261.1778,0.00015301,2.148e-05,0.0,0 STARLINK-3534,1 52120U 22029AJ  23095.54841226  .00002148  00000-0  15301-3 0  9994,2 52120  53.2155 198.6811 0001069  98.9335 261.1778 15.08842901 59396,6917.872,95.437,540.476,538.997,0.0
52120.0,STARLINK-3534,PAYLOAD,2023-04-06 09:49:43,15.0883915,0.0001073,53.2162,194.8164,99.0494,261.062,0.00011072,1.475e-05,0.0,0 STARLINK-3534,1 52120U 22029AJ  23096.40953474  .00001475  00000-0  11072-3 0  9992,2 52120  53.2162 194.8164 0001073  99.0494 261.0620 15.08839150 59528,6917.883,95.438,540.49,539.006,0.0
52120.0,STARLINK-3534,PAYLOAD,2023-04-06 11:25:06,15.08842192,0.0001063,53.2169,194.5196,94.8046,265.3067,8.4506e-05,1.057e-05,0.0,0 STARLINK-3534,1 52120U 22029AJ  23096.47577346  .00001057  00000-0  84506-4 0  9998,2 52120  53.2169 194.5196 0001063  94.8046 265.3067 15.08842192 59535,6917.874,95.437,540.474,539.003,0.0
52120.0,STARLINK-3534,PAYLOAD,2023-04-06 16:11:16,15.08846106,0.0001549,53.2155,193.6254,114.1117,246.0037,0.0001436,1.999e-05,0.0,0 STARLINK-3534,1 52120U 22029AJ  23096.67449099  .00001999  00000-0  14360-3 0  9998,2 52120  53.2155 193.6254 0001549 114.1117 246.0037 15.08846106 59564,6917.862,95.437,540.798,538.655,0.0
52120.0,STARLINK-3534,PAYLOAD,2023-04-07 11:15:53,15.08844233,0.0001265,53.2145,190.0557,121.9198,238.1918,0.000131,1.798e-05,0.0,0 STARLINK-3534,1 52120U 22029AJ  23097.46937025  .00001798  00000-0  13100-3 0  9995,2 52120  53.2145 190.0557 0001265 121.9198 238.1918 15.08844233 59682,6917.867,95.437,540.608,538.857,0.0
52120.0,STARLINK-3534,PAYLOAD,2023-04-08 11:06:40,15.08841755,0.0001526,53.2155,185.5963,107.9973,252.1185,4.536e-05,4.34e-06,0.0,0 STARLINK-3534,1 52120U 22029AJ  23098.46297178  .00000434  00000-0  45360-4 0  9994,2 52120  53.2155 185.5963 0001526 107.9973 252.1185 15.08841755 59833,6917.875,95.437,540.796,538.684,0.0
52120.0,STARLINK-3534,PAYLOAD,2023-04-08 12:42:03,15.08842699,0.0001434,53.2156,185.2994,107.4943,252.6206,6.874e-09,-2.88e-06,0.0,0 STARLINK-3534,1 52120U 22029AJ  23098.52921081 -.00000288  00000-0  68740-8 0  9997,2 52120  53.2156 185.2994 0001434 107.4943 252.6206 15.08842699 59843,6917.872,95.437,540.729,538.745,0.0
52120.0,STARLINK-3534,PAYLOAD,2023-04-09 10:57:27,15.08841266,0.0001424,53.2171,181.1383,105.9239,254.191,7.041e-05,8.33e-06,0.0,0 STARLINK-3534,1 52120U 22029AJ  23099.45657380  .00000833  00000-0  70410-4 0  9996,2 52120  53.2171 181.1383 0001424 105.9239 254.1910 15.08841266 59980,6917.877,95.437,540.727,538.756,0.0
52120.0,STARLINK-3534,PAYLOAD,2023-04-09 15:43:36,15.08846382,0.0001424,53.2153,180.2454,102.5041,257.611,8.6394e-05,1.088e-05,0.0,0 STARLINK-3534,1 52120U 22029AJ  23099.65528868  .00001088  00000-0  86394-4 0  9997,2 52120  53.2153 180.2454 0001424 102.5041 257.6110 15.08846382 60013,6917.861,95.437,540.711,538.741,0.0
52120.0,STARLINK-3534,PAYLOAD,2023-04-10 06:02:06,15.08832098,0.000146,53.2178,177.5707,94.5979,265.518,4.9541e-05,5e-06,0.0,0 STARLINK-3534,1 52120U 22029AJ  23100.25146237  .00000500  00000-0  49541-4 0  9993,2 52120  53.2178 177.5707 0001460  94.5979 265.5180 15.08832098 60104,6917.905,95.438,540.78,538.76,0.0
